[{"OBJECT_NAME":"STARLINK-31334","OBJECT_ID":"2024-044F","EPOCH":"2026-03-09T19:35:27.224448","MEAN_MOTION":15.27573584,"ECCENTRICITY":0.00013039,"INCLINATION":43.0034,"RA_OF_ASC_NODE":109.8659,"ARG_OF_PERICENTER":290.5191,"MEAN_ANOMALY":69.5521,"EPHEMERIS_TYPE":0,"CLASSIFICATION_TYPE":"U","NORAD_CAT_ID":59157,"ELEMENT_SET_NO":999,"REV_AT_EPOCH":11354,"BSTAR":-6.8658166e-5,"MEAN_MOTION_DOT":-2.151e-5,"MEAN_MOTION_DDOT":0},{"OBJECT_NAME":"CZ-4C R\/B","OBJECT_ID":"2013-037D","EPOCH":"2026-03-09T18:06:56.075616","MEAN_MOTION":15.35625196,"ECCENTRICITY":0.00667653,"INCLINATION":97.9623,"RA_OF_ASC_NODE":344.221,"ARG_OF_PERICENTER":268.5523,"MEAN_ANOMALY":90.807,"EPHEMERIS_TYPE":0,"CLASSIFICATION_TYPE":"U","NORAD_CAT_ID":39211,"ELEMENT_SET_NO":999,"REV_AT_EPOCH":69561,"BSTAR":0.000391022,"MEAN_MOTION_DOT":0.00014492,"MEAN_MOTION_DDOT":0}]
